BATSU-CS1 (IRAZU)       
1 43468U 98067NR  20064.05831928  .04860327  12102-4  10158-2 0  9990
2 43468  51.6208  66.1430 0002240 149.8670 210.2481 16.30203714203978
CUBERRT                 
1 43546U 98067NU  20079.23553032  .00015211  00000-0  12733-3 0  9992
2 43546  51.6364  23.2750 0004560  97.7401 262.4115 15.70208674 96052
TEMPEST-D               
1 43547U 98067NV  20078.75176058  .00005606  00000-0  71252-4 0  9997
2 43547  51.6376  49.3799 0005946  73.2045 286.9601 15.61101514 95347
RAINCUBE                
1 43548U 98067NW  20079.12497098  .00026314  00000-0  22129-3 0  9997
2 43548  51.6349  32.2648 0005620  97.7051 262.4584 15.69666735 96056
HALOSAT                 
1 43549U 98067NX  20079.34784006  .00032840  00000-0  27998-3 0  9990
2 43549  51.6369  31.5563 0005164  97.6594 262.4990 15.69210736 95642
ENDUROSAT ONE           
1 43551U 98067NZ  20079.23058674  .00047021  00000-0  32735-3 0  9998
2 43551  51.6338  24.7054 0005740 111.4863 248.6748 15.73861913 96130
EQUISAT                 
1 43552U 98067PA  20078.33063861  .00023970  00000-0  20135-3 0  9991
2 43552  51.6371  35.3038 0006065 101.1034 259.0645 15.69751057 95879
AEROCUBE 12A            
1 43556U 18046C   20078.75702527  .00001884  00000-0  77309-4 0  9995
2 43556  51.6421 181.2571 0007949 333.8307  26.2270 15.29504158 93499
AEROCUBE 12B            
1 43557U 18046D   20078.73681746  .00000835  00000-0  41475-4 0  9993
2 43557  51.6425 181.8634 0008057 334.0155  26.0420 15.29268757 93436
UITMSAT-1               
1 43589U 98067PD  20079.11514636  .00031291  00000-0  24484-3 0  9995
2 43589  51.6341  30.6468 0005579 111.7626 248.3966 15.71303555 91742
MAYA-1                  
1 43590U 98067PE  20079.23536921  .00037801  00000-0  29431-3 0  9991
2 43590  51.6343  29.9584 0005656 112.3565 247.8033 15.71324790 91698
BHUTAN-1                
1 43591U 98067PF  20079.27807568  .00040471  00000-0  31347-3 0  9990
2 43591  51.6349  29.5463 0005733 113.1638 246.9964 15.71415072 91702
SIRIUSSAT-1             
1 43595U 98067PG  20078.76331751  .00026216  00000-0  22080-3 0  9998
2 43595  51.6344  35.8216 0003949  83.4689 276.6758 15.69641296 90750
SIRIUSSAT-2             
1 43596U 98067PH  20079.20104036  .00034711  00000-0  29123-3 0  9997
2 43596  51.6352  34.3111 0004374  82.5503 277.5991 15.69575653 90815
TANUSHA-3               
1 43597U 98067PJ  20079.75968832  .00061641  00000-0  40073-3 0  9999
2 43597  51.6327  23.6273 0004271 105.0933 255.0539 15.75341450 91006
SURFSAT                 
1 43614U 18070B   20078.76248391  .00002542  00000-0  66467-4 0  9997
2 43614  93.0260 117.1074 0013968 338.0303  22.0350 15.38745007 84530
CP7 (DAVE)              
1 43615U 18070C   20079.11122572  .00002503  00000-0  65700-4 0  9996
2 43615  93.0261 117.2468 0014042 335.8559  24.2035 15.38625342 84580
ELFIN-B                 
1 43616U 18070D   20078.77006756  .00003449  00000-0  87128-4 0  9991
2 43616  93.0224 117.0242 0014645 339.5938  20.4729 15.39762916 84565
ELFIN-A                 
1 43617U 18070E   20079.20301399  .00004416  00000-0  11100-3 0  9993
2 43617  93.0279 117.6400 0013730 334.5731  25.4847 15.39917003 84631
CUBEBEL-1 (BSUSAT-1)    
1 43666U 18083E   20079.73096522  .00000979  00000-0  51319-4 0  9995
2 43666  97.4979 107.0468 0013822 318.1291 133.9641 15.18081887 77007
DEBRISSAT-2             
1 43680U 98067PR  20079.71894131  .00126398  00000-0  58277-3 0  9994
2 43680  51.6345  18.1194 0004581 126.6635 233.4789 15.82658381 99807
CICERO 10               
1 43690U 18088A   20079.63985375  .00000890  00000-0  39352-4 0  9994
2 43690  85.0381 137.5061 0012558 281.2075  78.7754 15.20088150 75097
IRVINE01                
1 43693U 18088D   20079.65579666  .00002207  00000-0  93389-4 0  9995
2 43693  85.0353 136.4465 0015458 259.6807 100.2692 15.22475277 75183
PROXIMA I               
1 43694U 18088E   20078.68213792  .00000817  00000-0  34077-4 0  9997
2 43694  85.0324 136.8961 0016969 255.2687 104.6675 15.21815840 75039
PROXIMA II              
1 43696U 18088G   20079.53532553  .00000872  00000-0  36512-4 0  9990
2 43696  85.0323 136.3346 0017051 251.6262 108.3126 15.21820685 75163
FACSAT-1                
1 43721U 18096C   20079.76891879  .00001461  00000-0  57712-4 0  9992
2 43721  97.4278 153.8120 0019347  80.9615 279.3812 15.26975423 72701
CENTAURI-2              
1 43722U 18096D   20078.77517367  .00001824  00000-0  70429-4 0  9993
2 43722  97.4289 153.0183 0019367  84.3585 275.9862 15.27415850 72555
INNOSAT-2               
1 43738U 18096V   20079.73572124  .00002978  00000-0  10470-3 0  9999
2 43738  97.4300 155.5821 0025340  88.6793 271.7350 15.29872860 72813
SIRION PATHFINDER-2     
1 43759U 18099B   20079.77222015 -.00000164  00000-0 -96541-5 0  9992
2 43759  97.7132 152.9304 0015630 119.9126 240.3650 14.95240980 70523
CORVUS-BC 4             
1 43767U 18099K   20079.74705367  .00000531  00000-0  54182-4 0  9994
2 43767  97.7115 152.4131 0013175 123.2646 236.9839 14.94680690 70506
MOVE-II                 
1 43780U 18099Y   20079.72433668  .00000183  00000-0  21788-4 0  9998
2 43780  97.7134 152.7931 0014824 131.3658 228.8841 14.95307119 70504
SPACEBEE-7              
1 43816U 18099BL  20078.14288098  .00000698  00000-0  67955-4 0  9995
2 43816  97.7149 151.5715 0014906 121.9206 238.3467 14.95613860 69840
SPACEBEE-5              
1 43817U 18099BM  20079.46818177  .00001049  00000-0  98197-4 0  9992
2 43817  97.7189 153.1903 0014720 119.2562 241.0133 14.96121293 70052
SPACEBEE-6              
1 43818U 18099BN  20079.18744218  .00000190  00000-0  22173-4 0  9993
2 43818  97.7160 152.6985 0014716 118.8196 241.4505 14.95775471 70159
SHIELDS 1               
1 43850U 18104B   20078.43253796  .00000042  00000-0  00000+0 0  9995
2 43850  85.0274 235.4968 0016785  50.9707 309.3127 15.21301984 69633
STF-1                   
1 43852U 18104D   20077.71287239  .00000042  00000-0  00000+0 0  9996
2 43852  85.0336 236.4494 0016507  66.0717 294.2361 15.21085598 69508
ZACUBE-2                
1 43907U 18111AH  20079.72852121  .00000558  00000-0  25382-4 0  9993
2 43907  97.2736 342.1572 0023276  99.7428 260.6440 15.24488196 68343
LUME 1                  
1 43908U 18111AJ  20078.95492272  .00000965  00000-0  41415-4 0  9992
2 43908  97.2737 341.5212 0023072 101.9656 258.4171 15.24849356 68235
AOBA VELOX-IV           
1 43940U 19003J   20079.75598020  .00001569  00000-0  65820-4 0  9993
2 43940  97.2402 134.0752 0024344 176.1638 279.6947 15.24672081 64984
CATSAT-2                
1 44029U 98067PV  20079.34160753  .00020096  00000-0  22811-3 0  9990
2 44029  51.6390  51.8645 0005028  96.7676 263.3891 15.62328365 64429
DELPHINI                
1 44030U 98067PW  20079.21527054  .00022145  00000-0  24417-3 0  9990
2 44030  51.6359  51.6972 0005138  94.2777 265.8805 15.63009232 64381
UNITE                   
1 44031U 98067PX  20079.07826936  .00010485  00000-0  13530-3 0  9994
2 44031  51.6378  56.8238 0004056  89.6232 270.5225 15.59601019 64304
TECHEDSAT 8             
1 44032U 98067PY  20079.58467217  .00249004  00000-0  92000-3 0  9994
2 44032  51.6279  29.2408 0006190 125.2812 234.8772 15.86918128 64694
CATSAT-1                
1 44033U 98067PZ  20079.21358322  .00018467  00000-0  21020-3 0  9992
2 44033  51.6393  52.5143 0004907  94.3136 265.8419 15.62321770 64312
RAAVANA-1               
1 44329U 98067QE  20079.33993479  .00013262  00000-0  19291-3 0  9996
2 44329  51.6394  65.3596 0007025  31.8709 328.2706 15.56084041 42961
UGUISU                  
1 44330U 98067QF  20079.66937985  .00012997  00000-0  18958-3 0  9997
2 44330  51.6394  63.8069 0007019  31.8524 328.2891 15.56029306 42990
NEPALISAT-1             
1 44331U 98067QG  20079.65509254  .00013035  00000-0  18947-3 0  9993
2 44331  51.6393  63.7142 0007082  34.2858 325.8590 15.56121045 43003
SPOOQY-1                
1 44332U 98067QH  20078.69076238  .00009936  00000-0  14658-3 0  9998
2 44332  51.6394  68.5205 0006019  33.8143 326.3231 15.56043749 42819
SPACEBEE-9              
1 44370U 19037F   20077.85483226  .00006375  00000-0  15383-3 0  9996
2 44370  45.0139 267.4123 0012942   1.7450 358.3487 15.42030167 40452
SPACEBEE-8              
1 44371U 19037G   20078.85207797  .00013364  00000-0  28391-3 0  9994
2 44371  45.0171 258.8172 0009997   7.0852 353.0178 15.44992521 40630
IOD-1 GEMS              
1 44385U 98067QK  20077.69609775  .00016026  00000-0  22116-3 0  9999
2 44385  51.6406  73.1641 0003080   6.2213 353.8817 15.57349461 40177
MOVE-IIB                
1 44398U 19038N   20079.69446536  .00001251  00000-0  75851-4 0  9999
2 44398  97.5260  42.1377 0027028  77.3050 283.1200 15.12115962 39016
SONATE                  
1 44400U 19038Q   20078.78355659  .00000507  00000-0  33245-4 0  9991
2 44400  97.5289  41.2592 0026952  78.9089 281.5170 15.11861214 38872
LUCKY-7                 
1 44406U 19038W   20079.67474736  .00000604  00000-0  38591-4 0  9991
2 44406  97.5286  42.2117 0026354  75.7980 284.6175 15.12102303 39003
BEESAT 9                
1 44412U 19038AC  20079.61082733  .00000853  00000-0  52951-4 0  9996
2 44412  97.5280  42.1308 0024482  81.4206 278.9797 15.12141446 38691
JAISAT-1                
1 44419U 19038F   20078.79980218  .00000810  00000-0  49852-4 0  9995
2 44419  97.5280  41.5270 0023372  83.5317 276.8574 15.12622039 38896
SWIATOWID               
1 44426U 98067QL  20079.70387705  .00016954  00000-0  22959-3 0  9990
2 44426  51.6422  62.9551 0003652   8.4687 162.1294 15.57809406 40508
KRAKSAT                 
1 44427U 98067QM  20077.96679306  .00006553  00000-0  10438-3 0  9991
2 44427  51.6432  74.2106 0004086 353.3916   6.6981 15.54600245 40244
VCC A                   
1 44428U 98067QN  20079.23403298  .00012705  00000-0  18892-3 0  9997
2 44428  51.6408  66.9316 0003345  17.5280 342.5826 15.55540482 40459
